[{"OBJECT_NAME":"STARLINK-31350","OBJECT_ID":"2024-027C","EPOCH":"2026-03-09T23:15:23.842080","MEAN_MOTION":15.30182349,"ECCENTRICITY":0.00010085,"INCLINATION":53.1592,"RA_OF_ASC_NODE":308.1456,"ARG_OF_PERICENTER":88.182,"MEAN_ANOMALY":271.9297,"EPHEMERIS_TYPE":0,"CLASSIFICATION_TYPE":"U","NORAD_CAT_ID":58933,"ELEMENT_SET_NO":999,"REV_AT_EPOCH":11737,"BSTAR":1.8690221e-5,"MEAN_MOTION_DOT":1.94e-6,"MEAN_MOTION_DDOT":0},{"OBJECT_NAME":"239ALFEROV (RS61S)","OBJECT_ID":"2025-155F","EPOCH":"2026-03-09T21:46:33.382848","MEAN_MOTION":15.29933217,"ECCENTRICITY":0.00084878,"INCLINATION":97.4469,"RA_OF_ASC_NODE":37.6373,"ARG_OF_PERICENTER":151.5904,"MEAN_ANOMALY":208.58,"EPHEMERIS_TYPE":0,"CLASSIFICATION_TYPE":"U","NORAD_CAT_ID":64881,"ELEMENT_SET_NO":999,"REV_AT_EPOCH":6561,"BSTAR":0.00067233359,"MEAN_MOTION_DOT":0.00019457,"MEAN_MOTION_DDOT":0}]
